[{"OBJECT_NAME":"KUIPER-00130","OBJECT_ID":"2025-228N","EPOCH":"2026-03-09T23:25:45.285312","MEAN_MOTION":14.79902266,"ECCENTRICITY":6.059e-5,"INCLINATION":51.903,"RA_OF_ASC_NODE":349.3445,"ARG_OF_PERICENTER":87.581,"MEAN_ANOMALY":272.5222,"EPHEMERIS_TYPE":0,"CLASSIFICATION_TYPE":"U","NORAD_CAT_ID":65959,"ELEMENT_SET_NO":999,"REV_AT_EPOCH":1370,"BSTAR":0.00026674985,"MEAN_MOTION_DOT":1.812e-5,"MEAN_MOTION_DDOT":0},{"OBJECT_NAME":"NOAA 16 DEB","OBJECT_ID":"2000-055DN","EPOCH":"2026-03-09T03:19:21.911520","MEAN_MOTION":14.74554385,"ECCENTRICITY":0.00321574,"INCLINATION":98.9038,"RA_OF_ASC_NODE":312.1398,"ARG_OF_PERICENTER":211.8402,"MEAN_ANOMALY":148.0861,"EPHEMERIS_TYPE":0,"CLASSIFICATION_TYPE":"U","NORAD_CAT_ID":41209,"ELEMENT_SET_NO":999,"REV_AT_EPOCH":53628,"BSTAR":0.002750537,"MEAN_MOTION_DOT":0.00018449,"MEAN_MOTION_DDOT":0}]
